{"fetched_at":"2026-03-29T16:36:15Z","count":15609,"tles":[{"name":"STARLINK-30330","line1":"1 57636U 23122E   26087.72171841  .00001558  00000+0  66107-4 0  9993","line2":"2 57636  43.0019 345.3642 0001087 276.0921  83.9807 15.27584500145110","category":"Starlink"}]}